[{"OBJECT_NAME":"STARLINK-4132","OBJECT_ID":"2022-086L","EPOCH":"2026-03-09T13:45:47.209248","MEAN_MOTION":15.08836694,"ECCENTRICITY":0.0001138,"INCLINATION":53.2173,"RA_OF_ASC_NODE":194.5921,"ARG_OF_PERICENTER":104.957,"MEAN_ANOMALY":255.1548,"EPHEMERIS_TYPE":0,"CLASSIFICATION_TYPE":"U","NORAD_CAT_ID":53252,"ELEMENT_SET_NO":999,"REV_AT_EPOCH":20106,"BSTAR":2.4676e-5,"MEAN_MOTION_DOT":1.05e-6,"MEAN_MOTION_DDOT":0},{"OBJECT_NAME":"PROSPERO (BLACK ARROW)","OBJECT_ID":"1971-093A","EPOCH":"2026-03-09T22:08:42.448992","MEAN_MOTION":14.01391999,"ECCENTRICITY":0.05025266,"INCLINATION":82.0414,"RA_OF_ASC_NODE":17.9371,"ARG_OF_PERICENTER":151.6068,"MEAN_ANOMALY":211.3501,"EPHEMERIS_TYPE":0,"CLASSIFICATION_TYPE":"U","NORAD_CAT_ID":5580,"ELEMENT_SET_NO":999,"REV_AT_EPOCH":73462,"BSTAR":0.00028939621,"MEAN_MOTION_DOT":1.372e-5,"MEAN_MOTION_DDOT":0}]
